[{"OBJECT_NAME":"STARLINK-3873","OBJECT_ID":"2022-049S","EPOCH":"2026-03-09T06:25:18.420384","MEAN_MOTION":15.0883171,"ECCENTRICITY":0.00013386,"INCLINATION":53.2168,"RA_OF_ASC_NODE":61.015,"ARG_OF_PERICENTER":91.4534,"MEAN_ANOMALY":268.6611,"EPHEMERIS_TYPE":0,"CLASSIFICATION_TYPE":"U","NORAD_CAT_ID":52467,"ELEMENT_SET_NO":999,"REV_AT_EPOCH":21218,"BSTAR":-1.6497752e-5,"MEAN_MOTION_DOT":-5.5e-6,"MEAN_MOTION_DDOT":0},{"OBJECT_NAME":"KUIPER-00164","OBJECT_ID":"2025-301B","EPOCH":"2026-03-09T22:00:01.999584","MEAN_MOTION":15.08488187,"ECCENTRICITY":0.00045568,"INCLINATION":51.8847,"RA_OF_ASC_NODE":66.2292,"ARG_OF_PERICENTER":84.8156,"MEAN_ANOMALY":198.9561,"EPHEMERIS_TYPE":0,"CLASSIFICATION_TYPE":"U","NORAD_CAT_ID":67134,"ELEMENT_SET_NO":999,"REV_AT_EPOCH":541,"BSTAR":0.00024752424,"MEAN_MOTION_DOT":3.618e-5,"MEAN_MOTION_DDOT":0}]
